CCSDS_OMM_VERS = 2.0
CREATION_DATE  = 
ORIGINATOR     = 

OBJECT_NAME    = SHIJIAN-28 (SJ-28)
OBJECT_ID      = 2025-277A
CENTER_NAME    = EARTH
REF_FRAME      = TEME
TIME_SYSTEM    = UTC
MEAN_ELEMENT_THEORY = SGP/SGP4

EPOCH          = 2025-12-24T15:21:58.044096
MEAN_MOTION    = 1.00265449
ECCENTRICITY   = .0001012
INCLINATION    = 4.9894
RA_OF_ASC_NODE = 274.7696
ARG_OF_PERICENTER = 129.8217
MEAN_ANOMALY   = 36.0524

EPHEMERIS_TYPE = 0
CLASSIFICATION_TYPE = U
NORAD_CAT_ID   = 66549
ELEMENT_SET_NO = 999
REV_AT_EPOCH   = 40
BSTAR          = 0
MEAN_MOTION_DOT = -.337E-5
MEAN_MOTION_DDOT = 0

CCSDS_OMM_VERS = 2.0
CREATION_DATE  = 
ORIGINATOR     = 

OBJECT_NAME    = CZ-7A R/B
OBJECT_ID      = 2025-277B
CENTER_NAME    = EARTH
REF_FRAME      = TEME
TIME_SYSTEM    = UTC
MEAN_ELEMENT_THEORY = SGP/SGP4

EPOCH          = 2025-12-23T05:53:12.433056
MEAN_MOTION    = 3.27661077
ECCENTRICITY   = .66094342
INCLINATION    = 14.3426
RA_OF_ASC_NODE = 263.9223
ARG_OF_PERICENTER = 200.4471
MEAN_ANOMALY   = 110.5172

EPHEMERIS_TYPE = 0
CLASSIFICATION_TYPE = U
NORAD_CAT_ID   = 66550
ELEMENT_SET_NO = 999
REV_AT_EPOCH   = 65
BSTAR          = .68493476E-2
MEAN_MOTION_DOT = .10979967E+0
MEAN_MOTION_DDOT = .18894821E-4

CCSDS_OMM_VERS = 2.0
CREATION_DATE  = 
ORIGINATOR     = 

OBJECT_NAME    = USA 568
OBJECT_ID      = 2024-134K
CENTER_NAME    = EARTH
REF_FRAME      = TEME
TIME_SYSTEM    = UTC
MEAN_ELEMENT_THEORY = SGP/SGP4

EPOCH          = 2025-12-02T16:00:03.000096
MEAN_MOTION    = 15.87051116
ECCENTRICITY   = .0000717
INCLINATION    = 53.1571
RA_OF_ASC_NODE = 236.7807
ARG_OF_PERICENTER = 110.7411
MEAN_ANOMALY   = 313.9012

EPHEMERIS_TYPE = 0
CLASSIFICATION_TYPE = U
NORAD_CAT_ID   = 66551
ELEMENT_SET_NO = 999
REV_AT_EPOCH   = 262
BSTAR          = -.74303E-2
MEAN_MOTION_DOT = -.1709685E-1
MEAN_MOTION_DDOT = 0

CCSDS_OMM_VERS = 2.0
CREATION_DATE  = 
ORIGINATOR     = 

OBJECT_NAME    = GLOBAL-33
OBJECT_ID      = 2025-267A
CENTER_NAME    = EARTH
REF_FRAME      = TEME
TIME_SYSTEM    = UTC
MEAN_ELEMENT_THEORY = SGP/SGP4

EPOCH          = 2025-12-24T06:29:55.595040
MEAN_MOTION    = 15.31725857
ECCENTRICITY   = .00045333
INCLINATION    = 42.0213
RA_OF_ASC_NODE = 350.4216
ARG_OF_PERICENTER = 172.4312
MEAN_ANOMALY   = 187.6595

EPHEMERIS_TYPE = 0
CLASSIFICATION_TYPE = U
NORAD_CAT_ID   = 66554
ELEMENT_SET_NO = 999
REV_AT_EPOCH   = 517
BSTAR          = .48053966E-3
MEAN_MOTION_DOT = .14821E-3
MEAN_MOTION_DDOT = 0

CCSDS_OMM_VERS = 2.0
CREATION_DATE  = 
ORIGINATOR     = 

OBJECT_NAME    = STARLINK-35699
OBJECT_ID      = 2025-268A
CENTER_NAME    = EARTH
REF_FRAME      = TEME
TIME_SYSTEM    = UTC
MEAN_ELEMENT_THEORY = SGP/SGP4

EPOCH          = 2025-12-24T20:00:01.000224
MEAN_MOTION    = 15.41919523
ECCENTRICITY   = .0001775
INCLINATION    = 43.0009
RA_OF_ASC_NODE = 50.4371
ARG_OF_PERICENTER = 270.6151
MEAN_ANOMALY   = 112.3935

EPHEMERIS_TYPE = 0
CLASSIFICATION_TYPE = U
NORAD_CAT_ID   = 66557
ELEMENT_SET_NO = 999
REV_AT_EPOCH   = 609
BSTAR          = -.53823E-1
MEAN_MOTION_DOT = -.2076553E-1
MEAN_MOTION_DDOT = 0

CCSDS_OMM_VERS = 2.0
CREATION_DATE  = 
ORIGINATOR     = 

OBJECT_NAME    = STARLINK-35695
OBJECT_ID      = 2025-268B
CENTER_NAME    = EARTH
REF_FRAME      = TEME
TIME_SYSTEM    = UTC
MEAN_ELEMENT_THEORY = SGP/SGP4

EPOCH          = 2025-12-24T08:00:03.000384
MEAN_MOTION    = 15.44997437
ECCENTRICITY   = .00013981
INCLINATION    = 43.0003
RA_OF_ASC_NODE = 53.3059
ARG_OF_PERICENTER = 285.7926
MEAN_ANOMALY   = 206.4706

EPHEMERIS_TYPE = 0
CLASSIFICATION_TYPE = U
NORAD_CAT_ID   = 66558
ELEMENT_SET_NO = 999
REV_AT_EPOCH   = 603
BSTAR          = -.47881567E-1
MEAN_MOTION_DOT = -.2054685E-1
MEAN_MOTION_DDOT = 0

CCSDS_OMM_VERS = 2.0
CREATION_DATE  = 
ORIGINATOR     = 

OBJECT_NAME    = STARLINK-35419
OBJECT_ID      = 2025-268C
CENTER_NAME    = EARTH
REF_FRAME      = TEME
TIME_SYSTEM    = UTC
MEAN_ELEMENT_THEORY = SGP/SGP4

EPOCH          = 2025-12-24T08:00:03.000384
MEAN_MOTION    = 15.50131709
ECCENTRICITY   = .00009682
INCLINATION    = 43.0001
RA_OF_ASC_NODE = 53.2135
ARG_OF_PERICENTER = 280.3946
MEAN_ANOMALY   = 250.1612

EPHEMERIS_TYPE = 0
CLASSIFICATION_TYPE = U
NORAD_CAT_ID   = 66559
ELEMENT_SET_NO = 999
REV_AT_EPOCH   = 610
BSTAR          = -.40449324E-1
MEAN_MOTION_DOT = -.2076304E-1
MEAN_MOTION_DDOT = 0

CCSDS_OMM_VERS = 2.0
CREATION_DATE  = 
ORIGINATOR     = 

OBJECT_NAME    = STARLINK-35411
OBJECT_ID      = 2025-268D
CENTER_NAME    = EARTH
REF_FRAME      = TEME
TIME_SYSTEM    = UTC
MEAN_ELEMENT_THEORY = SGP/SGP4

EPOCH          = 2025-12-24T08:00:03.000384
MEAN_MOTION    = 15.50662195
ECCENTRICITY   = .00009936
INCLINATION    = 43.0004
RA_OF_ASC_NODE = 53.2027
ARG_OF_PERICENTER = 281.3710
MEAN_ANOMALY   = 253.6594

EPHEMERIS_TYPE = 0
CLASSIFICATION_TYPE = U
NORAD_CAT_ID   = 66560
ELEMENT_SET_NO = 999
REV_AT_EPOCH   = 610
BSTAR          = -.39677133E-1
MEAN_MOTION_DOT = -.2075898E-1
MEAN_MOTION_DDOT = 0

CCSDS_OMM_VERS = 2.0
CREATION_DATE  = 
ORIGINATOR     = 

OBJECT_NAME    = STARLINK-35305
OBJECT_ID      = 2025-268E
CENTER_NAME    = EARTH
REF_FRAME      = TEME
TIME_SYSTEM    = UTC
MEAN_ELEMENT_THEORY = SGP/SGP4

EPOCH          = 2025-12-24T08:00:03.000384
MEAN_MOTION    = 15.52333402
ECCENTRICITY   = .00010149
INCLINATION    = 43.0003
RA_OF_ASC_NODE = 53.1767
ARG_OF_PERICENTER = 278.4073
MEAN_ANOMALY   = 267.0586

EPHEMERIS_TYPE = 0
CLASSIFICATION_TYPE = U
NORAD_CAT_ID   = 66561
ELEMENT_SET_NO = 999
REV_AT_EPOCH   = 609
BSTAR          = -.37333564E-1
MEAN_MOTION_DOT = -.20752E-1
MEAN_MOTION_DDOT = 0

CCSDS_OMM_VERS = 2.0
CREATION_DATE  = 
ORIGINATOR     = 

OBJECT_NAME    = STARLINK-35579
OBJECT_ID      = 2025-268F
CENTER_NAME    = EARTH
REF_FRAME      = TEME
TIME_SYSTEM    = UTC
MEAN_ELEMENT_THEORY = SGP/SGP4

EPOCH          = 2025-12-24T08:00:03.000384
MEAN_MOTION    = 15.51501579
ECCENTRICITY   = .00010185
INCLINATION    = 42.9997
RA_OF_ASC_NODE = 53.1886
ARG_OF_PERICENTER = 279.5471
MEAN_ANOMALY   = 260.9783

EPHEMERIS_TYPE = 0
CLASSIFICATION_TYPE = U
NORAD_CAT_ID   = 66562
ELEMENT_SET_NO = 999
REV_AT_EPOCH   = 610
BSTAR          = -.3856977E-1
MEAN_MOTION_DOT = -.2079582E-1
MEAN_MOTION_DDOT = 0

CCSDS_OMM_VERS = 2.0
CREATION_DATE  = 
ORIGINATOR     = 

OBJECT_NAME    = STARLINK-35437
OBJECT_ID      = 2025-268G
CENTER_NAME    = EARTH
REF_FRAME      = TEME
TIME_SYSTEM    = UTC
MEAN_ELEMENT_THEORY = SGP/SGP4

EPOCH          = 2025-12-24T08:00:03.000384
MEAN_MOTION    = 15.53184757
ECCENTRICITY   = .00008857
INCLINATION    = 43.0005
RA_OF_ASC_NODE = 53.1653
ARG_OF_PERICENTER = 272.3816
MEAN_ANOMALY   = 277.4516

EPHEMERIS_TYPE = 0
CLASSIFICATION_TYPE = U
NORAD_CAT_ID   = 66563
ELEMENT_SET_NO = 999
REV_AT_EPOCH   = 610
BSTAR          = -.3657422E-1
MEAN_MOTION_DOT = -.2094712E-1
MEAN_MOTION_DDOT = 0

CCSDS_OMM_VERS = 2.0
CREATION_DATE  = 
ORIGINATOR     = 

OBJECT_NAME    = STARLINK-35358
OBJECT_ID      = 2025-268H
CENTER_NAME    = EARTH
REF_FRAME      = TEME
TIME_SYSTEM    = UTC
MEAN_ELEMENT_THEORY = SGP/SGP4

EPOCH          = 2025-12-24T04:05:13.629696
MEAN_MOTION    = 15.56023289
ECCENTRICITY   = .00061187
INCLINATION    = 42.9996
RA_OF_ASC_NODE = 54.1135
ARG_OF_PERICENTER = 207.9587
MEAN_ANOMALY   = 152.0947

EPHEMERIS_TYPE = 0
CLASSIFICATION_TYPE = U
NORAD_CAT_ID   = 66564
ELEMENT_SET_NO = 999
REV_AT_EPOCH   = 640
BSTAR          = .16624036E-2
MEAN_MOTION_DOT = .120397E-2
MEAN_MOTION_DDOT = 0

