SHIJIAN-28 (SJ-28)      
1 66549U 25277A   25358.64025514 -.00000337  00000+0  00000+0 0  9995
2 66549   4.9894 274.7696 0001012 129.8217  36.0524  1.00265449   406
CZ-7A R/B               
1 66550U 25277B   25357.24528279  .10979967  18895-4  68493-2 0  9991
2 66550  14.3426 263.9223 6609434 200.4471 110.5172  3.27661077   658
USA 568                 
1 66551U 24134K   25336.66670139 -.01709685  00000+0 -74303-2 0  9990
2 66551  53.1571 236.7807 0000717 110.7411 313.9012 15.87051116  2624
GLOBAL-33               
1 66554U 25267A   25358.27078235  .00014821  00000+0  48054-3 0  9994
2 66554  42.0213 350.4216 0004533 172.4312 187.6595 15.31725857  5174
STARLINK-35699          
1 66557U 25268A   25358.83334491 -.02076553  00000+0 -53823-1 0  9991
2 66557  43.0009  50.4371 0001775 270.6151 112.3935 15.41919523  6098
STARLINK-35695          
1 66558U 25268B   25358.33336806 -.02054685  00000+0 -47882-1 0  9999
2 66558  43.0003  53.3059 0001398 285.7926 206.4706 15.44997437  6034
STARLINK-35419          
1 66559U 25268C   25358.33336806 -.02076304  00000+0 -40449-1 0  9994
2 66559  43.0001  53.2135 0000968 280.3946 250.1612 15.50131709  6101
STARLINK-35411          
1 66560U 25268D   25358.33336806 -.02075898  00000+0 -39677-1 0  9994
2 66560  43.0004  53.2027 0000993 281.3710 253.6594 15.50662195  6109
STARLINK-35305          
1 66561U 25268E   25358.33336806 -.02075200  00000+0 -37334-1 0  9990
2 66561  43.0003  53.1767 0001014 278.4073 267.0586 15.52333402  6099
STARLINK-35579          
1 66562U 25268F   25358.33336806 -.02079582  00000+0 -38570-1 0  9991
2 66562  42.9997  53.1886 0001018 279.5471 260.9783 15.51501579  6104
STARLINK-35437          
1 66563U 25268G   25358.33336806 -.02094712  00000+0 -36574-1 0  9996
2 66563  43.0005  53.1653 0000885 272.3816 277.4516 15.53184757  6108
STARLINK-35358          
1 66564U 25268H   25358.17029664  .00120397  00000+0  16624-2 0  9990
2 66564  42.9996  54.1135 0006118 207.9587 152.0947 15.56023289  6400
